[{"OBJECT_NAME":"EDISON-1","OBJECT_ID":"2025-009B","EPOCH":"2026-03-09T19:16:13.822464","MEAN_MOTION":15.29042904,"ECCENTRICITY":0.00043285,"INCLINATION":97.4042,"RA_OF_ASC_NODE":151.6286,"ARG_OF_PERICENTER":306.4185,"MEAN_ANOMALY":53.6655,"EPHEMERIS_TYPE":0,"CLASSIFICATION_TYPE":"U","NORAD_CAT_ID":62610,"ELEMENT_SET_NO":999,"REV_AT_EPOCH":6375,"BSTAR":0.00052814963,"MEAN_MOTION_DOT":0.00014835,"MEAN_MOTION_DDOT":0},{"OBJECT_NAME":"STARLINK-35374","OBJECT_ID":"2025-243T","EPOCH":"2026-03-09T17:54:16.967808","MEAN_MOTION":15.30198998,"ECCENTRICITY":0.00011126,"INCLINATION":53.1594,"RA_OF_ASC_NODE":244.9003,"ARG_OF_PERICENTER":109.014,"MEAN_ANOMALY":251.0982,"EPHEMERIS_TYPE":0,"CLASSIFICATION_TYPE":"U","NORAD_CAT_ID":66194,"ELEMENT_SET_NO":999,"REV_AT_EPOCH":2066,"BSTAR":0.00042994464,"MEAN_MOTION_DOT":0.00012395,"MEAN_MOTION_DDOT":0}]
